MAKERSAT 0              
1 43016U 17073D   26068.63673096  .00023659  00000+0  71590-3 0  9993
2 43016  97.4777 310.6155 0115258 266.0743  92.7313 15.27797199451246
STARLINK-31592          
1 59467U 24068N   26068.25794513 -.00001348  00000+0 -39479-4 0  9992
2 59467  43.0027  37.2216 0001182 275.3855  84.6862 15.27575645108456
